{"type": "FeatureCollection", "features": [ {"type": "Feature", "properties": {"norad_id": 58662, "name": "TIANMU-1 21", "group": "weather", "lat": 52.853317890724895, "lon": -78.83889593457712, "alt_km": 471.23911153316476, "timestamp": "2025-12-03T20:47:57.859648+00:00", "meta": {"OBJECT_NAME": "TIANMU-1 21", "OBJECT_ID": "2023-208C", "EPOCH": "2025-12-03T12:24:25.159104", "MEAN_MOTION": 15.3123509, "ECCENTRICITY": 0.000597, "INCLINATION": 97.4378, "RA_OF_ASC_NODE": 90.8804, "ARG_OF_PERICENTER": 298.7466, "MEAN_ANOMALY": 61.3174, "EPHEMERIS_TYPE": 0, "CLASSIFICATION_TYPE": "U", "NORAD_CAT_ID": 58662, "ELEMENT_SET_NO": 999, "REV_AT_EPOCH": 10758, "BSTAR": 0.00050431, "MEAN_MOTION_DOT": 0.00015158, "MEAN_MOTION_DDOT": 0}, "tle": {"line1": "1 58662U 23208C   25337.51695786  .00015158  00000+0  50431-3 0  9994", "line2": "2 58662  97.4378  90.8804 0005970 298.7466  61.3174 15.31235090107581"}}, "geometry": {"type": "Point", "coordinates": [-78.83889593457712, 52.853317890724895]}}, {"type": "Feature", "properties": {"norad_id": 58663, "name": "TIANMU-1 22", "group": "weather", "lat": 6.200938524965878, "lon": -90.20038495903258, "alt_km": 487.87685934655474, "timestamp": "2025-12-03T20:47:57.859658+00:00", "meta": {"OBJECT_NAME": "TIANMU-1 22", "OBJECT_ID": "2023-208D", "EPOCH": "2025-12-03T12:10:46.959744", "MEAN_MOTION": 15.27351385, "ECCENTRICITY": 0.0003058, "INCLINATION": 97.4388, "RA_OF_ASC_NODE": 88.6281, "ARG_OF_PERICENTER": 330.724, "MEAN_ANOMALY": 29.3827, "EPHEMERIS_TYPE": 0, "CLASSIFICATION_TYPE": "U", "NORAD_CAT_ID": 58663, "ELEMENT_SET_NO": 999, "REV_AT_EPOCH": 10742, "BSTAR": 0.00045441, "MEAN_MOTION_DOT": 0.00012105, "MEAN_MOTION_DDOT": 0}, "tle": {"line1": "1 58663U 23208D   25337.50748796  .00012105  00000+0  45441-3 0  9998", "line2": "2 58663  97.4388  88.6281 0003058 330.7240  29.3827 15.27351385107422"}}, "geometry": {"type": "Point", "coordinates": [-90.20038495903258, 6.200938524965878]}}, {"type": "Feature", "properties": {"norad_id": 58700, "name": "TIANMU-1 15", "group": "weather", "lat": 35.14181511438343, "lon": 154.07432855791484, "alt_km": 488.15535634849493, "timestamp": "2025-12-03T20:47:57.859669+00:00", "meta": {"OBJECT_NAME": "TIANMU-1 15", "OBJECT_ID": "2024-004A", "EPOCH": "2025-12-03T12:46:04.152000", "MEAN_MOTION": 15.24481304, "ECCENTRICITY": 0.0005765, "INCLINATION": 97.4624, "RA_OF_ASC_NODE": 159.035, "ARG_OF_PERICENTER": 335.3372, "MEAN_ANOMALY": 24.7589, "EPHEMERIS_TYPE": 0, "CLASSIFICATION_TYPE": "U", "NORAD_CAT_ID": 58700, "ELEMENT_SET_NO": 999, "REV_AT_EPOCH": 10594, "BSTAR": 0.00041093, "MEAN_MOTION_DOT": 0.00010033, "MEAN_MOTION_DDOT": 0}, "tle": {"line1": "1 58700U 24004A   25337.53199250  .00010033  00000+0  41093-3 0  9990", "line2": "2 58700  97.4624 159.0350 0005765 335.3372  24.7589 15.24481304105942"}}, "geometry": {"type": "Point", "coordinates": [154.07432855791484, 35.14181511438343]}}, {"type": "Feature", "properties": {"norad_id": 58701, "name": "TIANMU-1 16", "group": "weather", "lat": 54.02568556938906, "lon": -10.836600450202592, "alt_km": 491.1437580538013, "timestamp": "2025-12-03T20:47:57.859679+00:00", "meta": {"OBJECT_NAME": "TIANMU-1 16", "OBJECT_ID": "2024-004B", "EPOCH": "2025-12-02T23:46:09.262272", "MEAN_MOTION": 15.24215807, "ECCENTRICITY": 0.00050547, "INCLINATION": 97.4572, "RA_OF_ASC_NODE": 157.8955, "ARG_OF_PERICENTER": 336.3217, "MEAN_ANOMALY": 23.7787, "EPHEMERIS_TYPE": 0, "CLASSIFICATION_TYPE": "U", "NORAD_CAT_ID": 58701, "ELEMENT_SET_NO": 999, "REV_AT_EPOCH": 10586, "BSTAR": 6.5908855e-05, "MEAN_MOTION_DOT": 1.535e-05, "MEAN_MOTION_DDOT": 0}, "tle": {"line1": "1 58701U 24004B   25336.99038498  .00001535  00000+0  65909-4 0  9996", "line2": "2 58701  97.4572 157.8955 0005054 336.3217  23.7787 15.24215807105865"}}, "geometry": {"type": "Point", "coordinates": [-10.836600450202592, 54.02568556938906]}}, {"type": "Feature", "properties": {"norad_id": 58702, "name": "TIANMU-1 17", "group": "weather", "lat": -28.128863798100493, "lon": -24.84418245802294, "alt_km": 500.7153466681375, "timestamp": "2025-12-03T20:47:57.859690+00:00", "meta": {"OBJECT_NAME": "TIANMU-1 17", "OBJECT_ID": "2024-004C", "EPOCH": "2025-12-03T12:00:38.111904", "MEAN_MOTION": 15.24278965, "ECCENTRICITY": 0.000432, "INCLINATION": 97.4597, "RA_OF_ASC_NODE": 158.8081, "ARG_OF_PERICENTER": 338.7156, "MEAN_ANOMALY": 21.3901, "EPHEMERIS_TYPE": 0, "CLASSIFICATION_TYPE": "U", "NORAD_CAT_ID": 58702, "ELEMENT_SET_NO": 999, "REV_AT_EPOCH": 10593, "BSTAR": 0.0003927, "MEAN_MOTION_DOT": 9.525e-05, "MEAN_MOTION_DDOT": 0}, "tle": {"line1": "1 58702U 24004C   25337.50044111  .00009525  00000+0  39270-3 0  9992", "line2": "2 58702  97.4597 158.8081 0004320 338.7156  21.3901 15.24278965105931"}}, "geometry": {"type": "Point", "coordinates": [-24.84418245802294, -28.128863798100493]}}, {"type": "Feature", "properties": {"norad_id": 58703, "name": "TIANMU-1 18", "group": "weather", "lat": -59.10115917833663, "lon": 172.016148502672, "alt_km": 498.14705793312896, "timestamp": "2025-12-03T20:47:57.859701+00:00", "meta": {"OBJECT_NAME": "TIANMU-1 18", "OBJECT_ID": "2024-004D", "EPOCH": "2025-12-03T13:11:02.803200", "MEAN_MOTION": 15.24271752, "ECCENTRICITY": 0.0003667, "INCLINATION": 97.4615, "RA_OF_ASC_NODE": 159.0502, "ARG_OF_PERICENTER": 339.9142, "MEAN_ANOMALY": 20.1951, "EPHEMERIS_TYPE": 0, "CLASSIFICATION_TYPE": "U", "NORAD_CAT_ID": 58703, "ELEMENT_SET_NO": 999, "REV_AT_EPOCH": 10594, "BSTAR": 0.00037929, "MEAN_MOTION_DOT": 9.194e-05, "MEAN_MOTION_DDOT": 0}, "tle": {"line1": "1 58703U 24004D   25337.54933800  .00009194  00000+0  37929-3 0  9990", "line2": "2 58703  97.4615 159.0502 0003667 339.9142  20.1951 15.24271752105945"}}, "geometry": {"type": "Point", "coordinates": [172.016148502672, -59.10115917833663]}}, {"type": "Feature", "properties": {"norad_id": 58990, "name": "INSAT-3DS", "group": "weather", "lat": 0.021333712337948483, "lon": 106.98653331308222, "alt_km": 35793.54236545593, "timestamp": "2025-12-03T20:47:57.859712+00:00", "meta": {"OBJECT_NAME": "INSAT-3DS", "OBJECT_ID": "2024-033A", "EPOCH": "2025-12-03T10:43:15.661056", "MEAN_MOTION": 1.00268855, "ECCENTRICITY": 0.000176, "INCLINATION": 0.0143, "RA_OF_ASC_NODE": 319.5718, "ARG_OF_PERICENTER": 300.1451, "MEAN_ANOMALY": 55.7177, "EPHEMERIS_TYPE": 0, "CLASSIFICATION_TYPE": "U", "NORAD_CAT_ID": 58990, "ELEMENT_SET_NO": 999, "REV_AT_EPOCH": 4510, "BSTAR": 0, "MEAN_MOTION_DOT": 0, "MEAN_MOTION_DDOT": 0}, "tle": {"line1": "1 58990U 24033A   25337.44670904  .00000000  00000+0  00000+0 0  9995", "line2": "2 58990   0.0143 319.5718 0001760 300.1451  55.7177  1.00268855 45100"}}, "geometry": {"type": "Point", "coordinates": [106.98653331308222, 0.021333712337948483]}}, {"type": "Feature", "properties": {"norad_id": 59051, "name": "METEOR-M2 4", "group": "weather", "lat": 52.16911617745119, "lon": 126.2539314944976, "alt_km": 813.6427346116461, "timestamp": "2025-12-03T20:47:57.859723+00:00", "meta": {"OBJECT_NAME": "METEOR-M2 4", "OBJECT_ID": "2024-039A", "EPOCH": "2025-12-03T11:45:51.030144", "MEAN_MOTION": 14.22398914, "ECCENTRICITY": 0.0007534, "INCLINATION": 98.6752, "RA_OF_ASC_NODE": 294.5447, "ARG_OF_PERICENTER": 24.2119, "MEAN_ANOMALY": 335.9411, "EPHEMERIS_TYPE": 0, "CLASSIFICATION_TYPE": "U", "NORAD_CAT_ID": 59051, "ELEMENT_SET_NO": 999, "REV_AT_EPOCH": 9144, "BSTAR": 4.7067e-05, "MEAN_MOTION_DOT": 6.1e-07, "MEAN_MOTION_DDOT": 0}, "tle": {"line1": "1 59051U 24039A   25337.49017396  .00000061  00000+0  47067-4 0  9991", "line2": "2 59051  98.6752 294.5447 0007534  24.2119 335.9411 14.22398914 91449"}}, "geometry": {"type": "Point", "coordinates": [126.2539314944976, 52.16911617745119]}}, {"type": "Feature", "properties": {"norad_id": 60133, "name": "GOES 19", "group": "weather", "lat": 0.002164174139459359, "lon": -50.2599746118482, "alt_km": 35781.07701759701, "timestamp": "2025-12-03T20:47:57.859734+00:00", "meta": {"OBJECT_NAME": "GOES 19", "OBJECT_ID": "2024-119A", "EPOCH": "2025-12-03T09:58:27.452064", "MEAN_MOTION": 1.00270917, "ECCENTRICITY": 0.0001285, "INCLINATION": 0.0141, "RA_OF_ASC_NODE": 144.7901, "ARG_OF_PERICENTER": 153.0578, "MEAN_ANOMALY": 209.0932, "EPHEMERIS_TYPE": 0, "CLASSIFICATION_TYPE": "U", "NORAD_CAT_ID": 60133, "ELEMENT_SET_NO": 999, "REV_AT_EPOCH": 500, "BSTAR": 0, "MEAN_MOTION_DOT": -2.3e-06, "MEAN_MOTION_DDOT": 0}, "tle": {"line1": "1 60133U 24119A   25337.41559551 -.00000230  00000+0  00000+0 0  9999", "line2": "2 60133   0.0141 144.7901 0001285 153.0578 209.0932  1.00270917  5009"}}, "geometry": {"type": "Point", "coordinates": [-50.2599746118482, 0.002164174139459359]}}, {"type": "Feature", "properties": {"norad_id": 65815, "name": "FENGYUN 3H", "group": "weather", "lat": 80.20012896578685, "lon": -144.23767127572899, "alt_km": 817.8277472481632, "timestamp": "2025-12-03T20:47:57.859745+00:00", "meta": {"OBJECT_NAME": "FENGYUN 3H", "OBJECT_ID": "2025-219A", "EPOCH": "2025-12-03T10:15:05.346144", "MEAN_MOTION": 14.1990033, "ECCENTRICITY": 6.36e-05, "INCLINATION": 98.657, "RA_OF_ASC_NODE": 277.2204, "ARG_OF_PERICENTER": 71.2184, "MEAN_ANOMALY": 288.9062, "EPHEMERIS_TYPE": 0, "CLASSIFICATION_TYPE": "U", "NORAD_CAT_ID": 65815, "ELEMENT_SET_NO": 999, "REV_AT_EPOCH": 960, "BSTAR": 8.9885e-05, "MEAN_MOTION_DOT": 1.48e-06, "MEAN_MOTION_DDOT": 0}, "tle": {"line1": "1 65815U 25219A   25337.42714521  .00000148  00000+0  89885-4 0  9994", "line2": "2 65815  98.6570 277.2204 0000636  71.2184 288.9062 14.19900330  9604"}}, "geometry": {"type": "Point", "coordinates": [-144.23767127572899, 80.20012896578685]}}]}